FENGYUN 3D              
1 43010U 17072A   26165.46931664  .00000341  00000+0  18297-3 0  9991
2 43010  99.0117 139.8421 0002588  66.0645 294.0801 14.19740307444603
NOAA 20 (JPSS-1)        
1 43013U 17073A   26165.46382412  .00000026  00000+0  33287-4 0  9993
2 43013  98.7772 104.9506 0000286  75.0601 285.0607 14.19511233444081
GOES 17                 
1 43226U 18022A   26165.45706999 -.00000175  00000+0  00000+0 0  9991
2 43226   0.9302  85.7560 0000403  33.9043 218.1437  1.00270105 30390
SENTINEL-3B             
1 43437U 18039A   26165.17411822  .00000102  00000+0  60315-4 0  9999
2 43437  98.6249 232.7495 0000753  83.4735 276.6531 14.26734006423695
FENGYUN 2H              
1 43491U 18050A   26165.49052347 -.00000125  00000+0  00000+0 0  9996
2 43491   3.0230  79.1062 0001937 136.4326 303.2618  1.00269837 29416
METOP-C                 
1 43689U 18087A   26165.46371270  .00000095  00000+0  63042-4 0  9996
2 43689  98.6645 225.1170 0001669 132.5923 227.5395 14.21511415394447
GEO-KOMPSAT-2A          
1 43823U 18100A   26165.51387464 -.00000336  00000+0  00000+0 0  9999
2 43823   0.0506 129.4505 0001787 315.6546 130.9700  1.00271817 27604
METEOR-M2 2             
1 44387U 19038A   26165.50507128  .00000396  00000+0  19118-3 0  9995
2 44387  98.9136 152.7506 0002154  51.7408 308.3964 14.24366627360910
ARKTIKA-M 1             
1 47719U 21016A   26160.51571443 -.00000149  00000+0  00000+0 0  9996
2 47719  63.2417  58.7595 7285674 269.8905  14.6803  2.00625436 38630
FENGYUN 3E              
1 49008U 21062A   26165.52395273 -.00000017  00000+0  12477-4 0  9991
2 49008  98.7487 168.9616 0002833  89.4331 270.7170 14.19904087256209
GOES 18                 
1 51850U 22021A   26165.49589492  .00000104  00000+0  00000+0 0  9999
2 51850   0.0068  75.0588 0000472  92.9816 136.2784  1.00272268  6562
NOAA 21 (JPSS-2)        
1 54234U 22150A   26165.49682497  .00000039  00000+0  39165-4 0  9996
2 54234  98.7060 104.3312 0001500 159.8719 200.2517 14.19564997186164
METEOSAT-12 (MTG-I1)    
1 54743U 22170C   26165.33213747 -.00000001  00000+0  00000+0 0  9995
2 54743   0.7352  22.4795 0003135  72.1264 287.1767  1.00272007 12948
TIANMU-1 03             
1 55973U 23039A   26165.52792995  .00014564  00000+0  28796-3 0  9998
2 55973  97.5222 339.3933 0004263 105.5692 254.6028 15.47218179180421
TIANMU-1 04             
1 55974U 23039B   26165.51843147  .00014916  00000+0  28882-3 0  9991
2 55974  97.5161 338.5369 0004848 102.8542 257.3249 15.47814658180431
TIANMU-1 05             
1 55975U 23039C   26165.50856784  .00014590  00000+0  28920-3 0  9993
2 55975  97.5206 338.9889 0003903 121.1651 238.9982 15.47145348180408
TIANMU-1 06             
1 55976U 23039D   26165.52164527  .00014781  00000+0  28719-3 0  9991
2 55976  97.5213 339.6357 0004303 117.4740 242.6948 15.47719620180434
FENGYUN 3G              
1 56232U 23055A   26165.46771627  .00022559  00000+0  36686-3 0  9997
2 56232  49.9937   0.0335 0006905 284.8716  75.1486 15.52519884179587
METEOR-M2 3             
1 57166U 23091A   26165.49876634  .00000009  00000+0  22648-4 0  9991
2 57166  98.6090 220.5320 0004210 162.1984 197.9343 14.24046581154136
TIANMU-1 07             
1 57399U 23101A   26165.48371090  .00006085  00000+0  21350-3 0  9994
2 57399  97.2595 216.2140 0003959 127.0070 233.1534 15.29779867161236
TIANMU-1 08             
1 57400U 23101B   26165.51577123  .00006005  00000+0  21066-3 0  9992
2 57400  97.2584 216.0164 0005472 121.4210 238.7567 15.29785309161232
TIANMU-1 09             
1 57401U 23101C   26165.49923920  .00006141  00000+0  21520-3 0  9996
2 57401  97.2542 215.4173 0004418 132.7995 227.3618 15.29815049161230
TIANMU-1 10             
1 57402U 23101D   26165.46682986  .00006248  00000+0  21903-3 0  9991
2 57402  97.2621 216.4334 0005998 133.2843 226.8899 15.29786059161223
FENGYUN 3F              
1 57490U 23111A   26165.50793308  .00000053  00000+0  45335-4 0  9999
2 57490  98.6835 235.5665 0001591  95.0525 265.0833 14.19938678148488
ARKTIKA-M 2             
1 58584U 23198A   26160.78386103  .00000212  00000+0  00000+0 0  9997
2 58584  63.2205 155.1874 6900401 267.4353  18.7899  2.00606537 18179
TIANMU-1 11             
1 58645U 23205A   26165.49780575  .00005169  00000+0  19779-3 0  9991
2 58645  97.3442 187.0967 0009291  26.1260 334.0446 15.26971230137118
TIANMU-1 12             
1 58646U 23205B   26165.53363981  .00005570  00000+0  21324-3 0  9990
2 58646  97.3430 186.8883 0007052  13.0550 347.0870 15.26935528137104
TIANMU-1 13             
1 58647U 23205C   26165.50002757  .00005283  00000+0  20331-3 0  9997
2 58647  97.3459 187.1274 0006232 352.0859   8.0281 15.26788921137092
TIANMU-1 14             
1 58648U 23205D   26165.48531265  .00005411  00000+0  20785-3 0  9992
2 58648  97.3395 186.2968 0007184 355.9962   4.1219 15.26833342137092
TIANMU-1 19             
1 58660U 23208A   26165.47755764  .00007894  00000+0  26171-3 0  9992
2 58660  97.4505 281.7632 0004016 340.6591  19.4497 15.31538211136919
TIANMU-1 20             
1 58661U 23208B   26165.58274255  .00007547  00000+0  24114-3 0  9996
2 58661  97.4447 282.5015 0006232 344.4572  15.6477 15.32730679137024
