OBJECT_NAME,OBJECT_ID,EPOCH,MEAN_MOTION,ECCENTRICITY,INCLINATION,RA_OF_ASC_NODE,ARG_OF_PERICENTER,MEAN_ANOMALY,EPHEMERIS_TYPE,CLASSIFICATION_TYPE,NORAD_CAT_ID,ELEMENT_SET_NO,REV_AT_EPOCH,BSTAR,MEAN_MOTION_DOT,MEAN_MOTION_DDOT
FENGYUN 3D,2017-072A,2026-06-14T11:15:48.957696,14.19740307,.0002588,99.0117,139.8421,66.0645,294.0801,0,U,43010,999,44460,.18297E-3,.341E-5,0
NOAA 20 (JPSS-1),2017-073A,2026-06-14T11:07:54.403968,14.19511233,.0000286,98.7772,104.9506,75.0601,285.0607,0,U,43013,999,44408,.33287E-4,.26E-6,0
GOES 17,2018-022A,2026-06-14T10:58:10.847136,1.00270105,.0000403,0.9302,85.7560,33.9043,218.1437,0,U,43226,999,3039,0,-.175E-5,0
SENTINEL-3B,2018-039A,2026-06-14T04:10:43.814208,14.26734006,.00007536,98.6249,232.7495,83.4735,276.6531,0,U,43437,999,42369,.6031543E-4,.102E-5,0
FENGYUN 2H,2018-050A,2026-06-14T11:46:21.227808,1.00269837,.0001937,3.0230,79.1062,136.4326,303.2618,0,U,43491,999,2941,0,-.125E-5,0
METOP-C,2018-087A,2026-06-14T11:07:44.777280,14.21511415,.0001669,98.6645,225.1170,132.5923,227.5395,0,U,43689,999,39444,.63042E-4,.95E-6,0
GEO-KOMPSAT-2A,2018-100A,2026-06-14T12:19:58.768896,1.00271817,.0001787,0.0506,129.4505,315.6546,130.9700,0,U,43823,999,2760,0,-.336E-5,0
METEOR-M2 2,2019-038A,2026-06-14T12:07:18.158592,14.24366627,.0002154,98.9136,152.7506,51.7408,308.3964,0,U,44387,999,36091,.19118E-3,.396E-5,0
ARKTIKA-M 1,2021-016A,2026-06-09T12:22:37.726752,2.00625436,.7285674,63.2417,58.7595,269.8905,14.6803,0,U,47719,999,3863,0,-.149E-5,0
FENGYUN 3E,2021-062A,2026-06-14T12:34:29.515872,14.19904087,.0002833,98.7487,168.9616,89.4331,270.7170,0,U,49008,999,25620,.12477E-4,-.17E-6,0
GOES 18,2022-021A,2026-06-14T11:54:05.321088,1.00272268,.0000472,0.0068,75.0588,92.9816,136.2784,0,U,51850,999,656,0,.104E-5,0
NOAA 21 (JPSS-2),2022-150A,2026-06-14T11:55:25.677408,14.19564997,.00015,98.7060,104.3312,159.8719,200.2517,0,U,54234,999,18616,.39165E-4,.39E-6,0
METEOSAT-12 (MTG-I1),2022-170C,2026-06-14T07:58:16.677408,1.00272007,.0003135,0.7352,22.4795,72.1264,287.1767,0,U,54743,999,1294,0,-.1E-7,0
TIANMU-1 03,2023-039A,2026-06-14T12:40:13.147680,15.47218179,.0004263,97.5222,339.3933,105.5692,254.6028,0,U,55973,999,18042,.28796E-3,.14564E-3,0
TIANMU-1 04,2023-039B,2026-06-14T12:26:32.479008,15.47814658,.0004848,97.5161,338.5369,102.8542,257.3249,0,U,55974,999,18043,.28882E-3,.14916E-3,0
TIANMU-1 05,2023-039C,2026-06-14T12:12:20.261376,15.47145348,.0003903,97.5206,338.9889,121.1651,238.9982,0,U,55975,999,18040,.2892E-3,.1459E-3,0
TIANMU-1 06,2023-039D,2026-06-14T12:31:10.151328,15.47719620,.0004303,97.5213,339.6357,117.4740,242.6948,0,U,55976,999,18043,.28719E-3,.14781E-3,0
FENGYUN 3G,2023-055A,2026-06-14T11:13:30.685728,15.52519884,.0006905,49.9937,0.0335,284.8716,75.1486,0,U,56232,999,17958,.36686E-3,.22559E-3,0
METEOR-M2 3,2023-091A,2026-06-14T11:58:13.411776,14.24046581,.000421,98.6090,220.5320,162.1984,197.9343,0,U,57166,999,15413,.22648E-4,.9E-7,0
TIANMU-1 07,2023-101A,2026-06-14T11:36:32.621760,15.29779867,.0003959,97.2595,216.2140,127.0070,233.1534,0,U,57399,999,16123,.2135E-3,.6085E-4,0
TIANMU-1 08,2023-101B,2026-06-14T12:22:42.634272,15.29785309,.0005472,97.2584,216.0164,121.4210,238.7567,0,U,57400,999,16123,.21066E-3,.6005E-4,0
TIANMU-1 09,2023-101C,2026-06-14T11:58:54.266880,15.29815049,.0004418,97.2542,215.4173,132.7995,227.3618,0,U,57401,999,16123,.2152E-3,.6141E-4,0
TIANMU-1 10,2023-101D,2026-06-14T11:12:14.099904,15.29786059,.0005998,97.2621,216.4334,133.2843,226.8899,0,U,57402,999,16122,.21903E-3,.6248E-4,0
FENGYUN 3F,2023-111A,2026-06-14T12:11:25.418112,14.19938678,.0001591,98.6835,235.5665,95.0525,265.0833,0,U,57490,999,14848,.45335E-4,.53E-6,0
ARKTIKA-M 2,2023-198A,2026-06-09T18:48:45.592992,2.00606537,.69004015,63.2205,155.1874,267.4353,18.7899,0,U,58584,999,1817,0,.212E-5,0
TIANMU-1 11,2023-205A,2026-06-14T11:56:50.416800,15.26971230,.0009291,97.3442,187.0967,26.1260,334.0446,0,U,58645,999,13711,.19779E-3,.5169E-4,0
TIANMU-1 12,2023-205B,2026-06-14T12:48:26.479584,15.26935528,.0007052,97.3430,186.8883,13.0550,347.0870,0,U,58646,999,13710,.21324E-3,.557E-4,0
TIANMU-1 13,2023-205C,2026-06-14T12:00:02.382048,15.26788921,.0006232,97.3459,187.1274,352.0859,8.0281,0,U,58647,999,13709,.20331E-3,.5283E-4,0
TIANMU-1 14,2023-205D,2026-06-14T11:38:51.012960,15.26833342,.0007184,97.3395,186.2968,355.9962,4.1219,0,U,58648,999,13709,.20785E-3,.5411E-4,0
TIANMU-1 19,2023-208A,2026-06-14T11:27:40.980096,15.31538211,.0004016,97.4505,281.7632,340.6591,19.4497,0,U,58660,999,13691,.26171E-3,.7894E-4,0
TIANMU-1 20,2023-208B,2026-06-14T13:59:08.956320,15.32730679,.0006232,97.4447,282.5015,344.4572,15.6477,0,U,58661,999,13702,.24114E-3,.7547E-4,0
